{"type": "FeatureCollection", "features": [ {"type": "Feature", "properties": {"norad_id": 33492, "name": "GOSAT (IBUKI)", "group": "resource", "lat": 79.99285777916653, "lon": -23.59694217876945, "alt_km": 660.8351982370887, "timestamp": "2025-12-20T07:33:50.460309+00:00", "meta": {"OBJECT_NAME": "GOSAT (IBUKI)", "OBJECT_ID": "2009-002A", "EPOCH": "2025-12-19T21:18:37.538208", "MEAN_MOTION": 14.67538307, "ECCENTRICITY": 0.00010049, "INCLINATION": 98.0772, "RA_OF_ASC_NODE": 102.3919, "ARG_OF_PERICENTER": 100.7372, "MEAN_ANOMALY": 259.3946, "EPHEMERIS_TYPE": 0, "CLASSIFICATION_TYPE": "U", "NORAD_CAT_ID": 33492, "ELEMENT_SET_NO": 999, "REV_AT_EPOCH": 90516, "BSTAR": 0.00011204226, "MEAN_MOTION_DOT": 5.87e-06, "MEAN_MOTION_DDOT": 0}, "tle": {"line1": "1 33492U 09002A   25353.88793447  .00000587  00000+0  11204-3 0  9990", "line2": "2 33492  98.0772 102.3919 0001004 100.7372 259.3946 14.67538307905169"}}, "geometry": {"type": "Point", "coordinates": [-23.59694217876945, 79.99285777916653]}}, {"type": "Feature", "properties": {"norad_id": 35681, "name": "DEIMOS-1", "group": "resource", "lat": 15.153625331116842, "lon": 152.46143163622403, "alt_km": 644.9575057340753, "timestamp": "2025-12-20T07:33:50.460320+00:00", "meta": {"OBJECT_NAME": "DEIMOS-1", "OBJECT_ID": "2009-041A", "EPOCH": "2025-12-19T23:21:14.931936", "MEAN_MOTION": 14.74964433, "ECCENTRICITY": 0.00026178, "INCLINATION": 97.7141, "RA_OF_ASC_NODE": 154.2392, "ARG_OF_PERICENTER": 67.5886, "MEAN_ANOMALY": 292.5601, "EPHEMERIS_TYPE": 0, "CLASSIFICATION_TYPE": "U", "NORAD_CAT_ID": 35681, "ELEMENT_SET_NO": 999, "REV_AT_EPOCH": 88046, "BSTAR": 0.00012453759, "MEAN_MOTION_DOT": 7.9e-06, "MEAN_MOTION_DDOT": 0}, "tle": {"line1": "1 35681U 09041A   25353.97308949  .00000790  00000+0  12454-3 0  9998", "line2": "2 35681  97.7141 154.2392 0002617  67.5886 292.5601 14.74964433880462"}}, "geometry": {"type": "Point", "coordinates": [152.46143163622403, 15.153625331116842]}}, {"type": "Feature", "properties": {"norad_id": 35682, "name": "DUBAISAT-1", "group": "resource", "lat": -58.03368500110209, "lon": 137.87363515083783, "alt_km": 647.1280015502934, "timestamp": "2025-12-20T07:33:50.460332+00:00", "meta": {"OBJECT_NAME": "DUBAISAT-1", "OBJECT_ID": "2009-041B", "EPOCH": "2025-12-19T22:03:33.977664", "MEAN_MOTION": 14.74622186, "ECCENTRICITY": 0.00092705, "INCLINATION": 97.9798, "RA_OF_ASC_NODE": 124.4935, "ARG_OF_PERICENTER": 288.7349, "MEAN_ANOMALY": 71.2853, "EPHEMERIS_TYPE": 0, "CLASSIFICATION_TYPE": "U", "NORAD_CAT_ID": 35682, "ELEMENT_SET_NO": 999, "REV_AT_EPOCH": 87867, "BSTAR": 0.00014158498, "MEAN_MOTION_DOT": 8.94e-06, "MEAN_MOTION_DDOT": 0}, "tle": {"line1": "1 35682U 09041B   25353.91914326  .00000894  00000+0  14158-3 0  9993", "line2": "2 35682  97.9798 124.4935 0009270 288.7349  71.2853 14.74622186878675"}}, "geometry": {"type": "Point", "coordinates": [137.87363515083783, -58.03368500110209]}}, {"type": "Feature", "properties": {"norad_id": 35931, "name": "OCEANSAT-2", "group": "resource", "lat": -55.53969946356027, "lon": 161.98517718501577, "alt_km": 912.08545201592, "timestamp": "2025-12-20T07:33:50.460357+00:00", "meta": {"OBJECT_NAME": "OCEANSAT-2", "OBJECT_ID": "2009-051A", "EPOCH": "2025-12-19T23:34:30.961920", "MEAN_MOTION": 13.99623203, "ECCENTRICITY": 0.00160297, "INCLINATION": 98.2217, "RA_OF_ASC_NODE": 353.8481, "ARG_OF_PERICENTER": 26.0736, "MEAN_ANOMALY": 334.1235, "EPHEMERIS_TYPE": 0, "CLASSIFICATION_TYPE": "U", "NORAD_CAT_ID": 35931, "ELEMENT_SET_NO": 999, "REV_AT_EPOCH": 85426, "BSTAR": -6.3379606e-05, "MEAN_MOTION_DOT": -1.3e-06, "MEAN_MOTION_DDOT": 0}, "tle": {"line1": "1 35931U 09051A   25353.98230280 -.00000130  00000+0 -63380-4 0  9995", "line2": "2 35931  98.2217 353.8481 0016029  26.0736 334.1235 13.99623203854260"}}, "geometry": {"type": "Point", "coordinates": [161.98517718501577, -55.53969946356027]}}, {"type": "Feature", "properties": {"norad_id": 35946, "name": "WORLDVIEW-2 (WV-2)", "group": "resource", "lat": -43.953956301750836, "lon": 73.5638211899086, "alt_km": 773.0701373685997, "timestamp": "2025-12-20T07:33:50.460369+00:00", "meta": {"OBJECT_NAME": "WORLDVIEW-2 (WV-2)", "OBJECT_ID": "2009-055A", "EPOCH": "2025-12-19T21:44:57.429600", "MEAN_MOTION": 14.37726898, "ECCENTRICITY": 0.00049475, "INCLINATION": 98.478, "RA_OF_ASC_NODE": 64.8924, "ARG_OF_PERICENTER": 53.1686, "MEAN_ANOMALY": 306.9954, "EPHEMERIS_TYPE": 0, "CLASSIFICATION_TYPE": "U", "NORAD_CAT_ID": 35946, "ELEMENT_SET_NO": 999, "REV_AT_EPOCH": 84988, "BSTAR": 5.2881661e-05, "MEAN_MOTION_DOT": 1.15e-06, "MEAN_MOTION_DDOT": 0}, "tle": {"line1": "1 35946U 09055A   25353.90622025  .00000115  00000+0  52882-4 0  9995", "line2": "2 35946  98.4780  64.8924 0004947  53.1686 306.9954 14.37726898849889"}}, "geometry": {"type": "Point", "coordinates": [73.5638211899086, -43.953956301750836]}}, {"type": "Feature", "properties": {"norad_id": 36036, "name": "SMOS", "group": "resource", "lat": 45.289264250552286, "lon": 170.6271803523154, "alt_km": 754.769064666315, "timestamp": "2025-12-20T07:33:50.460380+00:00", "meta": {"OBJECT_NAME": "SMOS", "OBJECT_ID": "2009-059A", "EPOCH": "2025-12-19T11:20:10.902624", "MEAN_MOTION": 14.39746894, "ECCENTRICITY": 0.0001083, "INCLINATION": 98.438, "RA_OF_ASC_NODE": 178.4211, "ARG_OF_PERICENTER": 82.411, "MEAN_ANOMALY": 277.7201, "EPHEMERIS_TYPE": 0, "CLASSIFICATION_TYPE": "U", "NORAD_CAT_ID": 36036, "ELEMENT_SET_NO": 999, "REV_AT_EPOCH": 84759, "BSTAR": 0.00010424, "MEAN_MOTION_DOT": 2.83e-06, "MEAN_MOTION_DDOT": 0}, "tle": {"line1": "1 36036U 09059A   25353.47234841  .00000283  00000+0  10424-3 0  9998", "line2": "2 36036  98.4380 178.4211 0001083  82.4110 277.7201 14.39746894847598"}}, "geometry": {"type": "Point", "coordinates": [170.6271803523154, 45.289264250552286]}}, {"type": "Feature", "properties": {"norad_id": 36110, "name": "YAOGAN-7", "group": "resource", "lat": -5.229175788089249, "lon": 55.304393996029134, "alt_km": 634.6241416959119, "timestamp": "2025-12-20T07:33:50.460392+00:00", "meta": {"OBJECT_NAME": "YAOGAN-7", "OBJECT_ID": "2009-069A", "EPOCH": "2025-12-19T04:43:30.237600", "MEAN_MOTION": 14.77741395, "ECCENTRICITY": 0.0023351, "INCLINATION": 98.0297, "RA_OF_ASC_NODE": 234.9307, "ARG_OF_PERICENTER": 259.2514, "MEAN_ANOMALY": 100.6067, "EPHEMERIS_TYPE": 0, "CLASSIFICATION_TYPE": "U", "NORAD_CAT_ID": 36110, "ELEMENT_SET_NO": 999, "REV_AT_EPOCH": 86304, "BSTAR": 7.003e-05, "MEAN_MOTION_DOT": 4.51e-06, "MEAN_MOTION_DDOT": 0}, "tle": {"line1": "1 36110U 09069A   25353.19687775  .00000451  00000+0  70030-4 0  9996", "line2": "2 36110  98.0297 234.9307 0023351 259.2514 100.6067 14.77741395863047"}}, "geometry": {"type": "Point", "coordinates": [55.304393996029134, -5.229175788089249]}}, {"type": "Feature", "properties": {"norad_id": 36605, "name": "TANDEM-X", "group": "resource", "lat": 60.58520807863447, "lon": -167.00543225158412, "alt_km": 501.62557827414184, "timestamp": "2025-12-20T07:33:50.460402+00:00", "meta": {"OBJECT_NAME": "TANDEM-X", "OBJECT_ID": "2010-030A", "EPOCH": "2025-12-19T12:04:27.806304", "MEAN_MOTION": 15.19152689, "ECCENTRICITY": 0.0001806, "INCLINATION": 97.4444, "RA_OF_ASC_NODE": 358.7845, "ARG_OF_PERICENTER": 78.9569, "MEAN_ANOMALY": 281.1868, "EPHEMERIS_TYPE": 0, "CLASSIFICATION_TYPE": "U", "NORAD_CAT_ID": 36605, "ELEMENT_SET_NO": 999, "REV_AT_EPOCH": 85936, "BSTAR": 3.4902e-05, "MEAN_MOTION_DOT": 6.66e-06, "MEAN_MOTION_DDOT": 0}, "tle": {"line1": "1 36605U 10030A   25353.50309961  .00000666  00000+0  34902-4 0  9994", "line2": "2 36605  97.4444 358.7845 0001806  78.9569 281.1868 15.19152689859365"}}, "geometry": {"type": "Point", "coordinates": [-167.00543225158412, 60.58520807863447]}}, {"type": "Feature", "properties": {"norad_id": 36795, "name": "CARTOSAT-2B", "group": "resource", "lat": 39.64470782491781, "lon": -130.39170731813468, "alt_km": 629.6202972807941, "timestamp": "2025-12-20T07:33:50.460413+00:00", "meta": {"OBJECT_NAME": "CARTOSAT-2B", "OBJECT_ID": "2010-035A", "EPOCH": "2025-12-19T22:48:53.967168", "MEAN_MOTION": 14.78732633, "ECCENTRICITY": 0.001284, "INCLINATION": 97.7848, "RA_OF_ASC_NODE": 42.7469, "ARG_OF_PERICENTER": 55.2698, "MEAN_ANOMALY": 304.9721, "EPHEMERIS_TYPE": 0, "CLASSIFICATION_TYPE": "U", "NORAD_CAT_ID": 36795, "ELEMENT_SET_NO": 999, "REV_AT_EPOCH": 83336, "BSTAR": 1.6781277e-05, "MEAN_MOTION_DOT": 7.3e-07, "MEAN_MOTION_DDOT": 0}, "tle": {"line1": "1 36795U 10035A   25353.95062462  .00000073  00000+0  16781-4 0  9997", "line2": "2 36795  97.7848  42.7469 0012840  55.2698 304.9721 14.78732633833360"}}, "geometry": {"type": "Point", "coordinates": [-130.39170731813468, 39.64470782491781]}}, {"type": "Feature", "properties": {"norad_id": 36834, "name": "YAOGAN-10", "group": "resource", "lat": 20.07926360260553, "lon": 11.164982560597242, "alt_km": 614.2821366265107, "timestamp": "2025-12-20T07:33:50.460423+00:00", "meta": {"OBJECT_NAME": "YAOGAN-10", "OBJECT_ID": "2010-038A", "EPOCH": "2025-12-19T23:33:07.306848", "MEAN_MOTION": 14.84634409, "ECCENTRICITY": 0.00014426, "INCLINATION": 97.9135, "RA_OF_ASC_NODE": 13.7481, "ARG_OF_PERICENTER": 79.3438, "MEAN_ANOMALY": 317.9203, "EPHEMERIS_TYPE": 0, "CLASSIFICATION_TYPE": "U", "NORAD_CAT_ID": 36834, "ELEMENT_SET_NO": 999, "REV_AT_EPOCH": 83061, "BSTAR": 0.00018108155, "MEAN_MOTION_DOT": 1.477e-05, "MEAN_MOTION_DDOT": 0}, "tle": {"line1": "1 36834U 10038A   25353.98133457  .00001477  00000+0  18108-3 0  9993", "line2": "2 36834  97.9135  13.7481 0001442  79.3438 317.9203 14.84634409830615"}}, "geometry": {"type": "Point", "coordinates": [11.164982560597242, 20.07926360260553]}}]}